start=new Date('2023-02-16T00:00:00.000Z').valueOf();
sats=[{"LAUNCH_DATE":"2022-07-24","ELEMENT_SET_NO":"999","MEAN_MOTION_DDOT":"0.0000000000000","OBJECT_ID":"2022-086F","RCS_SIZE":"LARGE","APOAPSIS":"540.460","INCLINATION":"53.2137","PERIAPSIS":"538.948","MEAN_ELEMENT_THEORY":"SGP4","DECAY_DATE":null,"COUNTRY_CODE":"US","OBJECT_NAME":"STARLINK-4061","TLE_LINE2":"2 53247  53.2137 178.2685 0001093  96.1223 263.9894 15.08853618 32525","CLASSIFICATION_TYPE":"U","PERIOD":"95.437","EPOCH":"2023-02-15T15:14:01.562784","MEAN_MOTION":"15.08853618","RA_OF_ASC_NODE":"178.2685","REF_FRAME":"TEME","TLE_LINE1":"1 53247U 22086F   23046.63474031  .00002693  00000-0  18714-3 0  9996","SEMIMAJOR_AXIS":"6917.839","ARG_OF_PERICENTER":"96.1223","CENTER_NAME":"EARTH","SITE":"AFETR","ECCENTRICITY":"0.00010930","GP_ID":"225552974","MEAN_MOTION_DOT":"0.00002693","EPHEMERIS_TYPE":"0","NORAD_CAT_ID":"53247","MEAN_ANOMALY":"263.9894","TIME_SYSTEM":"UTC","BSTAR":"0.00018714000000","OBJECT_TYPE":"PAYLOAD","FILE":"3795153","REV_AT_EPOCH":"3252"},{"OBJECT_TYPE":"PAYLOAD","FILE":"3795153","REV_AT_EPOCH":"3252","NORAD_CAT_ID":"53248","TIME_SYSTEM":"UTC","EPHEMERIS_TYPE":"0","MEAN_ANOMALY":"259.5382","BSTAR":"0.00237890000000","ECCENTRICITY":"0.00008990","GP_ID":"225553714","MEAN_MOTION_DOT":"0.00037800","CENTER_NAME":"EARTH","SITE":"AFETR","TLE_LINE1":"1 53248U 22086G   23046.63107027  .00037800  00000-0  23789-2 0  9990","SEMIMAJOR_AXIS":"6917.807","ARG_OF_PERICENTER":"100.5711","RA_OF_ASC_NODE":"178.2812","REF_FRAME":"TEME","MEAN_MOTION":"15.08864036","PERIOD":"95.436","EPOCH":"2023-02-15T15:08:44.471328","OBJECT_NAME":"STARLINK-4135","TLE_LINE2":"2 53248  53.2138 178.2812 0000899 100.5711 259.5382 15.08864036 32523","CLASSIFICATION_TYPE":"U","DECAY_DATE":null,"COUNTRY_CODE":"US","MEAN_ELEMENT_THEORY":"SGP4","INCLINATION":"53.2138","PERIAPSIS":"539.050","APOAPSIS":"540.294","RCS_SIZE":"LARGE","MEAN_MOTION_DDOT":"0.0000000000000","OBJECT_ID":"2022-086G","LAUNCH_DATE":"2022-07-24","ELEMENT_SET_NO":"999"},{"MEAN_MOTION_DOT":"0.00056280","GP_ID":"225554457","ECCENTRICITY":"0.00005900","BSTAR":"0.00352770000000","NORAD_CAT_ID":"53249","MEAN_ANOMALY":"250.9630","EPHEMERIS_TYPE":"0","TIME_SYSTEM":"UTC","REV_AT_EPOCH":"3232","FILE":"3795153","OBJECT_TYPE":"PAYLOAD","MEAN_MOTION":"15.08824695","REF_FRAME":"TEME","RA_OF_ASC_NODE":"172.3379","ARG_OF_PERICENTER":"109.1426","SEMIMAJOR_AXIS":"6917.927","TLE_LINE1":"1 53249U 22086H   23046.84219865  .00056280  00000-0  35277-2 0  9996","SITE":"AFETR","CENTER_NAME":"EARTH","MEAN_ELEMENT_THEORY":"SGP4","COUNTRY_CODE":"US","DECAY_DATE":null,"CLASSIFICATION_TYPE":"U","TLE_LINE2":"2 53249  53.2126 172.3379 0000590 109.1426 250.9630 15.08824695 32326","OBJECT_NAME":"STARLINK-4128","EPOCH":"2023-02-15T20:12:45.963360","PERIOD":"95.439","ELEMENT_SET_NO":"999","LAUNCH_DATE":"2022-07-24","OBJECT_ID":"2022-086H","MEAN_MOTION_DDOT":"0.0000000000000","RCS_SIZE":"LARGE","APOAPSIS":"540.200","PERIAPSIS":"539.384","INCLINATION":"53.2126"},{"MEAN_MOTION":"15.08801739","REF_FRAME":"TEME","RA_OF_ASC_NODE":"172.3187","ARG_OF_PERICENTER":"92.0249","SEMIMAJOR_AXIS":"6917.997","TLE_LINE1":"1 53250U 22086J   23046.84585233 -.00047073  00000-0 -29621-2 0  9991","SITE":"AFETR","CENTER_NAME":"EARTH","MEAN_MOTION_DOT":"-0.00047073","ECCENTRICITY":"0.00017400","GP_ID":"225553979","BSTAR":"-0.00296210000000","NORAD_CAT_ID":"53250","TIME_SYSTEM":"UTC","EPHEMERIS_TYPE":"0","MEAN_ANOMALY":"268.0943","REV_AT_EPOCH":"3232","FILE":"3795153","OBJECT_TYPE":"PAYLOAD","ELEMENT_SET_NO":"999","LAUNCH_DATE":"2022-07-24","OBJECT_ID":"2022-086J","MEAN_MOTION_DDOT":"0.0000000000000","APOAPSIS":"541.066","RCS_SIZE":"LARGE","PERIAPSIS":"538.659","INCLINATION":"53.2145","MEAN_ELEMENT_THEORY":"SGP4","COUNTRY_CODE":"US","DECAY_DATE":null,"CLASSIFICATION_TYPE":"U","TLE_LINE2":"2 53250  53.2145 172.3187 0001740  92.0249 268.0943 15.08801739 32328","OBJECT_NAME":"STARLINK-4059","EPOCH":"2023-02-15T20:18:01.641312","PERIOD":"95.440"},{"PERIAPSIS":"538.683","INCLINATION":"53.2145","APOAPSIS":"540.476","RCS_SIZE":"LARGE","OBJECT_ID":"2022-086K","MEAN_MOTION_DDOT":"0.0000000000000","ELEMENT_SET_NO":"999","LAUNCH_DATE":"2022-07-24","EPOCH":"2023-02-15T20:02:07.445760","PERIOD":"95.434","TLE_LINE2":"2 53251  53.2145 172.3669 0001296  90.3591 269.7550 15.08894351 32303","CLASSIFICATION_TYPE":"U","OBJECT_NAME":"STARLINK-4129","COUNTRY_CODE":"US","DECAY_DATE":null,"MEAN_ELEMENT_THEORY":"SGP4","SITE":"AFETR","CENTER_NAME":"EARTH","ARG_OF_PERICENTER":"90.3591","SEMIMAJOR_AXIS":"6917.714","TLE_LINE1":"1 53251U 22086K   23046.83480840  .00050836  00000-0  31846-2 0  9990","REF_FRAME":"TEME","RA_OF_ASC_NODE":"172.3669","MEAN_MOTION":"15.08894351","REV_AT_EPOCH":"3230","FILE":"3795153","OBJECT_TYPE":"PAYLOAD","BSTAR":"0.00318460000000","NORAD_CAT_ID":"53251","EPHEMERIS_TYPE":"0","MEAN_ANOMALY":"269.7550","TIME_SYSTEM":"UTC","MEAN_MOTION_DOT":"0.00050836","ECCENTRICITY":"0.00012960","GP_ID":"225553468"},{"BSTAR":"0.00347240000000","EPHEMERIS_TYPE":"0","NORAD_CAT_ID":"53252","MEAN_ANOMALY":"264.9217","TIME_SYSTEM":"UTC","REV_AT_EPOCH":"3232","OBJECT_TYPE":"PAYLOAD","FILE":"3795153","MEAN_MOTION_DOT":"0.00055493","ECCENTRICITY":"0.00011180","GP_ID":"225553221","SEMIMAJOR_AXIS":"6917.716","ARG_OF_PERICENTER":"95.1903","TLE_LINE1":"1 53252U 22086L   23046.84312168  .00055493  00000-0  34724-2 0  9991","SITE":"AFETR","CENTER_NAME":"EARTH","MEAN_MOTION":"15.08893922","REF_FRAME":"TEME","RA_OF_ASC_NODE":"172.3321","OBJECT_NAME":"STARLINK-4132","TLE_LINE2":"2 53252  53.2133 172.3321 0001118  95.1903 264.9217 15.08893922 32321","CLASSIFICATION_TYPE":"U","PERIOD":"95.434","EPOCH":"2023-02-15T20:14:05.713152","MEAN_ELEMENT_THEORY":"SGP4","COUNTRY_CODE":"US","DECAY_DATE":null,"APOAPSIS":"540.354","RCS_SIZE":"LARGE","PERIAPSIS":"538.807","INCLINATION":"53.2133","ELEMENT_SET_NO":"999","LAUNCH_DATE":"2022-07-24","OBJECT_ID":"2022-086L","MEAN_MOTION_DDOT":"0.0000000000000"},{"CENTER_NAME":"EARTH","SITE":"AFETR","TLE_LINE1":"1 53253U 22086M   23046.63241273  .00029911  00000-0  18878-2 0  9995","SEMIMAJOR_AXIS":"6917.780","ARG_OF_PERICENTER":"87.6723","RA_OF_ASC_NODE":"173.2726","REF_FRAME":"TEME","MEAN_MOTION":"15.08872684","OBJECT_TYPE":"PAYLOAD","FILE":"3795153","REV_AT_EPOCH":"3227","NORAD_CAT_ID":"53253","MEAN_ANOMALY":"272.4400","EPHEMERIS_TYPE":"0","TIME_SYSTEM":"UTC","BSTAR":"0.00188780000000","GP_ID":"225553964","ECCENTRICITY":"0.00011450","MEAN_MOTION_DOT":"0.00029911","INCLINATION":"53.2144","PERIAPSIS":"538.853","RCS_SIZE":"MEDIUM","APOAPSIS":"540.438","MEAN_MOTION_DDOT":"0.0000000000000","OBJECT_ID":"2022-086M","LAUNCH_DATE":"2022-07-24","ELEMENT_SET_NO":"999","PERIOD":"95.435","EPOCH":"2023-02-15T15:10:40.459872","OBJECT_NAME":"STARLINK-4133","TLE_LINE2":"2 53253  53.2144 173.2726 0001145  87.6723 272.4400 15.08872684 32273","CLASSIFICATION_TYPE":"U","DECAY_DATE":null,"COUNTRY_CODE":"US","MEAN_ELEMENT_THEORY":"SGP4"},{"MEAN_MOTION_DDOT":"0.0000000000000","OBJECT_ID":"2022-086N","LAUNCH_DATE":"2022-07-24","ELEMENT_SET_NO":"999","INCLINATION":"53.2147","PERIAPSIS":"538.953","APOAPSIS":"540.415","RCS_SIZE":"LARGE","DECAY_DATE":null,"COUNTRY_CODE":"US","MEAN_ELEMENT_THEORY":"SGP4","EPOCH":"2023-02-15T15:21:15.071328","PERIOD":"95.436","TLE_LINE2":"2 53254  53.2147 173.2414 0001057 113.3016 246.8087 15.08860058 32295","CLASSIFICATION_TYPE":"U","OBJECT_NAME":"STARLINK-4134","RA_OF_ASC_NODE":"173.2414","REF_FRAME":"TEME","MEAN_MOTION":"15.08860058","CENTER_NAME":"EARTH","SITE":"AFETR","TLE_LINE1":"1 53254U 22086N   23046.63975777  .00003170  00000-0  21707-3 0  9994","ARG_OF_PERICENTER":"113.3016","SEMIMAJOR_AXIS":"6917.819","ECCENTRICITY":"0.00010570","GP_ID":"225554473","MEAN_MOTION_DOT":"0.00003170","FILE":"3795153","OBJECT_TYPE":"PAYLOAD","REV_AT_EPOCH":"3229","NORAD_CAT_ID":"53254","EPHEMERIS_TYPE":"0","TIME_SYSTEM":"UTC","MEAN_ANOMALY":"246.8087","BSTAR":"0.00021707000000"},{"ECCENTRICITY":"0.00012020","GP_ID":"225552975","MEAN_MOTION_DOT":"0.00044890","OBJECT_TYPE":"PAYLOAD","FILE":"3795153","REV_AT_EPOCH":"3230","NORAD_CAT_ID":"53255","EPHEMERIS_TYPE":"0","MEAN_ANOMALY":"265.0890","TIME_SYSTEM":"UTC","BSTAR":"0.00281650000000","RA_OF_ASC_NODE":"172.4187","REF_FRAME":"TEME","MEAN_MOTION":"15.08895053","CENTER_NAME":"EARTH","SITE":"AFETR","TLE_LINE1":"1 53255U 22086P   23046.82376275  .00044890  00000-0  28165-2 0  9992","SEMIMAJOR_AXIS":"6917.712","ARG_OF_PERICENTER":"95.0240","DECAY_DATE":null,"COUNTRY_CODE":"US","MEAN_ELEMENT_THEORY":"SGP4","PERIOD":"95.434","EPOCH":"2023-02-15T19:46:13.101600","OBJECT_NAME":"STARLINK-4142","CLASSIFICATION_TYPE":"U","TLE_LINE2":"2 53255  53.2146 172.4187 0001202  95.0240 265.0890 15.08895053 32300","MEAN_MOTION_DDOT":"0.0000000000000","OBJECT_ID":"2022-086P","LAUNCH_DATE":"2022-07-24","ELEMENT_SET_NO":"999","INCLINATION":"53.2146","PERIAPSIS":"538.746","APOAPSIS":"540.409","RCS_SIZE":"LARGE"},{"FILE":"3794533","OBJECT_TYPE":"PAYLOAD","REV_AT_EPOCH":"3211","NORAD_CAT_ID":"53256","EPHEMERIS_TYPE":"0","MEAN_ANOMALY":"265.5714","TIME_SYSTEM":"UTC","BSTAR":"0.00052130000000","ECCENTRICITY":"0.00014320","GP_ID":"225515573","MEAN_MOTION_DOT":"0.00008023","CENTER_NAME":"EARTH","SITE":"AFETR","TLE_LINE1":"1 53256U 22086Q   23046.76120732  .00008023  00000-0  52130-3 0  9999","ARG_OF_PERICENTER":"94.5441","SEMIMAJOR_AXIS":"6917.821","RA_OF_ASC_NODE":"172.7026","REF_FRAME":"TEME","MEAN_MOTION":"15.08859584","EPOCH":"2023-02-15T18:16:08.312448","PERIOD":"95.436","TLE_LINE2":"2 53256  53.2130 172.7026 0001432  94.5441 265.5714 15.08859584 32119","CLASSIFICATION_TYPE":"U","OBJECT_NAME":"STARLINK-4147","DECAY_DATE":null,"COUNTRY_CODE":"US","MEAN_ELEMENT_THEORY":"SGP4","INCLINATION":"53.2130","PERIAPSIS":"538.695","APOAPSIS":"540.676","RCS_SIZE":"LARGE","MEAN_MOTION_DDOT":"0.0000000000000","OBJECT_ID":"2022-086Q","LAUNCH_DATE":"2022-07-24","ELEMENT_SET_NO":"999"}];
